ONEWEB-0220             
1 48232U 21031Y   23272.50936671  .00000313  00000+0  81095-3 0  9991
2 48232  87.8977 127.1269 0001313  72.9776 287.1498 13.14504604118121
ONEWEB-0165             
1 48233U 21031Z   23272.15837316 -.00000075  00000+0 -23739-3 0  9997
2 48233  87.8973 127.2084 0001555  73.9944 286.1357 13.14501689118033
ONEWEB-0199             
1 48234U 21031AA  23271.60863162  .00000130  00000+0  31630-3 0  9994
2 48234  87.8973 127.2899 0001595  74.3705 285.7600 13.14505085117862
ONEWEB-0203             
1 48235U 21031AB  23272.51146731  .00000244  00000+0  62245-3 0  9994
2 48235  87.8972 127.1088 0002049  78.3235 281.8124 13.14505522117996
ONEWEB-0197             
1 48236U 21031AC  23271.88971003  .00000189  00000+0  47452-3 0  9993
2 48236  87.8971 127.2420 0001579  86.5905 273.5405 13.14502357117824
ONEWEB-0194             
1 48237U 21031AD  23272.16260133 -.00000107  00000+0 -32207-3 0  9995
2 48237  87.8973 127.1765 0002048  81.8626 278.2736 13.14502082118036
ONEWEB-0193             
1 48238U 21031AE  23272.40785076 -.00000051  00000+0 -17123-3 0  9999
2 48238  87.8968 127.1370 0001765  73.1166 287.0157 13.14506702118017
ONEWEB-0191             
1 48239U 21031AF  23272.49454512 -.00000822  00000+0 -22522-2 0  9991
2 48239  87.8982 127.1004 0001806  75.6442 284.4888 13.14509744117883
